$$SOE
2459580.500000000, A.D. 2022-Jan-01 00:00:00.0000, 3.134721454016118E+09, -1.083147280181051E+09, 1.573247354333150E+08,
2459587.500000000, A.D. 2022-Jan-08 00:00:00.0000, 3.136052814159163E+09, -1.079823925724694E+09, 1.578309316742550E+08,
2459594.500000000, A.D. 2022-Jan-15 00:00:00.0000, 3.137379927183083E+09, -1.076499120955043E+09, 1.583369192076896E+08,
2459601.500000000, A.D. 2022-Jan-22 00:00:00.0000, 3.138702795988458E+09, -1.073172872019420E+09, 1.588426970197376E+08,
2459608.500000000, A.D. 2022-Jan-29 00:00:00.0000, 3.140021424059342E+09, -1.069845182588472E+09, 1.593482642040960E+08,
2459615.500000000, A.D. 2022-Feb-05 00:00:00.0000, 3.141335813256179E+09, -1.066516054527844E+09, 1.598536201098056E+08,
2459622.500000000, A.D. 2022-Feb-12 00:00:00.0000, 3.142645963782049E+09, -1.063185489638099E+09, 1.603587642039705E+08,
2459629.500000000, A.D. 2022-Feb-19 00:00:00.0000, 3.143951874997451E+09, -1.059853490093889E+09, 1.608636959644317E+08,
2459636.500000000, A.D. 2022-Feb-26 00:00:00.0000, 3.145253545772257E+09, -1.056520058305369E+09, 1.613684148634129E+08,
2459643.500000000, A.D. 2022-Mar-05 00:00:00.0000, 3.146550974534127E+09, -1.053185196818717E+09, 1.618729203768632E+08,
2459650.500000000, A.D. 2022-Mar-12 00:00:00.0000, 3.147844159235177E+09, -1.049848908321419E+09, 1.623772119934936E+08,
2459657.500000000, A.D. 2022-Mar-19 00:00:00.0000, 3.149133097307987E+09, -1.046511195724099E+09, 1.628812892189792E+08,
2459664.500000000, A.D. 2022-Mar-26 00:00:00.0000, 3.150417785633335E+09, -1.043172062324687E+09, 1.633851515724967E+08,
2459671.500000000, A.D. 2022-Apr-02 00:00:00.0000, 3.151698220587459E+09, -1.039831512110505E+09, 1.638887985645498E+08,
2459678.500000000, A.D. 2022-Apr-09 00:00:00.0000, 3.152974398440914E+09, -1.036489550193243E+09, 1.643922296313016E+08,
2459685.500000000, A.D. 2022-Apr-16 00:00:00.0000, 3.154246316466146E+09, -1.033146182722507E+09, 1.648954440459192E+08,
2459692.500000000, A.D. 2022-Apr-23 00:00:00.0000, 3.155513973484910E+09, -1.029801415193503E+09, 1.653984410117956E+08,
2459699.500000000, A.D. 2022-Apr-30 00:00:00.0000, 3.156777367985389E+09, -1.026455251393935E+09, 1.659012199256120E+08,
2459706.500000000, A.D. 2022-May-07 00:00:00.0000, 3.158036496871739E+09, -1.023107694963604E+09, 1.664037803679727E+08,
2459713.500000000, A.D. 2022-May-14 00:00:00.0000, 3.159291356235431E+09, -1.019758750528383E+09, 1.669061219424117E+08,
2459720.500000000, A.D. 2022-May-21 00:00:00.0000, 3.160541942117340E+09, -1.016408423649807E+09, 1.674082442110710E+08,
2459727.500000000, A.D. 2022-May-28 00:00:00.0000, 3.161788250781752E+09, -1.013056720548959E+09, 1.679101466926310E+08,
2459734.500000000, A.D. 2022-Jun-04 00:00:00.0000, 3.163030278779436E+09, -1.009703647917380E+09, 1.684118288715336E+08,
2459741.500000000, A.D. 2022-Jun-11 00:00:00.0000, 3.164268022944462E+09, -1.006349212812670E+09, 1.689132902054509E+08,
2459748.500000000, A.D. 2022-Jun-18 00:00:00.0000, 3.165501480363521E+09, -1.002993422625308E+09, 1.694145301285943E+08,
2459755.500000000, A.D. 2022-Jun-25 00:00:00.0000, 3.166730648347187E+09, -9.996362851496116E+08, 1.699155480455329E+08,
2459762.500000000, A.D. 2022-Jul-02 00:00:00.0000, 3.167955524537237E+09, -9.962778088243482E+08, 1.704163432979576E+08,
2459769.500000000, A.D. 2022-Jul-09 00:00:00.0000, 3.169176107540299E+09, -9.929180029657751E+08, 1.709169150831831E+08,
2459776.500000000, A.D. 2022-Jul-16 00:00:00.0000, 3.170392398032710E+09, -9.895568769101493E+08, 1.714172624180882E+08,
2459783.500000000, A.D. 2022-Jul-23 00:00:00.0000, 3.171604398138176E+09, -9.861944379878925E+08, 1.719173843566815E+08,
2459790.500000000, A.D. 2022-Jul-30 00:00:00.0000, 3.172812109162341E+09, -9.828306916832886E+08, 1.724172801797050E+08,
2459797.500000000, A.D. 2022-Aug-06 00:00:00.0000, 3.174015531283012E+09, -9.794656433315762E+08, 1.729169492793753E+08,
2459804.500000000, A.D. 2022-Aug-13 00:00:00.0000, 3.175214664372875E+09, -9.760992985989769E+08, 1.734163910401044E+08,
2459811.500000000, A.D. 2022-Aug-20 00:00:00.0000, 3.176409508385323E+09, -9.727316632490581E+08, 1.739156048182622E+08,
2459818.500000000, A.D. 2022-Aug-27 00:00:00.0000, 3.177600063371562E+09, -9.693627429220008E+08, 1.744145899555792E+08,
2459825.500000000, A.D. 2022-Sep-03 00:00:00.0000, 3.178786329376920E+09, -9.659925430373095E+08, 1.749133457945992E+08,
2459832.500000000, A.D. 2022-Sep-10 00:00:00.0000, 3.179968306306423E+09, -9.626210687960540E+08, 1.754118716900034E+08,
2459839.500000000, A.D. 2022-Sep-17 00:00:00.0000, 3.181145993789112E+09, -9.592483252843761E+08, 1.759101670130120E+08,
2459846.500000000, A.D. 2022-Sep-24 00:00:00.0000, 3.182319391101471E+09, -9.558743177291428E+08, 1.764082311391385E+08,
2459853.500000000, A.D. 2022-Oct-01 00:00:00.0000, 3.183488497389988E+09, -9.524990519280396E+08, 1.769060633953508E+08,
2459860.500000000, A.D. 2022-Oct-08 00:00:00.0000, 3.184653312600141E+09, -9.491225343320298E+08, 1.774036629717583E+08,
2459867.500000000, A.D. 2022-Oct-15 00:00:00.0000, 3.185813838179961E+09, -9.457447705809971E+08, 1.779010289810625E+08,
2459874.500000000, A.D. 2022-Oct-22 00:00:00.0000, 3.186970075376606E+09, -9.423657641764580E+08, 1.783981607279968E+08,
2459881.500000000, A.D. 2022-Oct-29 00:00:00.0000, 3.188122023623744E+09, -9.389855178848395E+08, 1.788950577474224E+08,
2459888.500000000, A.D. 2022-Nov-05 00:00:00.0000, 3.189269681119076E+09, -9.356040351301689E+08, 1.793917196422490E+08,
2459895.500000000, A.D. 2022-Nov-12 00:00:00.0000, 3.190413045627149E+09, -9.322213201089550E+08, 1.798881460047277E+08,
2459902.500000000, A.D. 2022-Nov-19 00:00:00.0000, 3.191552114788118E+09, -9.288373775813735E+08, 1.803843364089297E+08,
2459909.500000000, A.D. 2022-Nov-26 00:00:00.0000, 3.192686886194650E+09, -9.254522127360845E+08, 1.808802904177451E+08,
2459916.500000000, A.D. 2022-Dec-03 00:00:00.0000, 3.193817357403011E+09, -9.220658311402180E+08, 1.813760075881300E+08,
2459923.500000000, A.D. 2022-Dec-10 00:00:00.0000, 3.194943525923866E+09, -9.186782387558261E+08, 1.818714874719037E+08,
2459930.500000000, A.D. 2022-Dec-17 00:00:00.0000, 3.196065389217494E+09, -9.152894420478035E+08, 1.823667296077765E+08,
2459937.500000000, A.D. 2022-Dec-24 00:00:00.0000, 3.197182944802838E+09, -9.118994482491071E+08, 1.828617334892116E+08,
2459944.500000000, A.D. 2022-Dec-31 00:00:00.0000, 3.198296190837992E+09, -9.085082656757625E+08, 1.833564984841486E+08,
2459951.500000000, A.D. 2023-Jan-07 00:00:00.0000, 3.199405127294847E+09, -9.051159031292673E+08, 1.838510237740303E+08,
2459958.500000000, A.D. 2023-Jan-14 00:00:00.0000, 3.200509755760904E+09, -9.017223678895822E+08, 1.843453085332288E+08,
2459965.500000000, A.D. 2023-Jan-21 00:00:00.0000, 3.201610077223467E+09, -8.983276654713418E+08, 1.848393521488067E+08,
2459972.500000000, A.D. 2023-Jan-28 00:00:00.0000, 3.202706091504240E+09, -8.949318013387853E+08, 1.853331541282713E+08,
2459979.500000000, A.D. 2023-Feb-04 00:00:00.0000, 3.203797798135779E+09, -8.915347815516555E+08, 1.858267139619572E+08,
2459986.500000000, A.D. 2023-Feb-11 00:00:00.0000, 3.204885196884581E+09, -8.881366125356016E+08, 1.863200310889871E+08,
2459993.500000000, A.D. 2023-Feb-18 00:00:00.0000, 3.205968287857614E+09, -8.847373008001288E+08, 1.868131049054510E+08,
2460000.500000000, A.D. 2023-Feb-25 00:00:00.0000, 3.207047071455215E+09, -8.813368527657044E+08, 1.873059347776209E+08,
2460007.500000000, A.D. 2023-Mar-04 00:00:00.0000, 3.208121548272701E+09, -8.779352746809921E+08, 1.877985200525213E+08,
2460014.500000000, A.D. 2023-Mar-11 00:00:00.0000, 3.209191718979496E+09, -8.745325726294676E+08, 1.882908600634565E+08,
2460021.500000000, A.D. 2023-Mar-18 00:00:00.0000, 3.210257584223037E+09, -8.711287526746477E+08, 1.887829541223416E+08,
2460028.500000000, A.D. 2023-Mar-25 00:00:00.0000, 3.211319144760986E+09, -8.677238211909002E+08, 1.892748014765496E+08,
2460035.500000000, A.D. 2023-Apr-01 00:00:00.0000, 3.212376402246416E+09, -8.643177849862047E+08, 1.897664012237056E+08,
2460042.500000000, A.D. 2023-Apr-08 00:00:00.0000, 3.213429360050780E+09, -8.609106499916898E+08, 1.902577523411819E+08,
2460049.500000000, A.D. 2023-Apr-15 00:00:00.0000, 3.214478021787740E+09, -8.575024196239457E+08, 1.907488539544320E+08,
2460056.500000000, A.D. 2023-Apr-22 00:00:00.0000, 3.215522389347148E+09, -8.540930958719484E+08, 1.912397054289212E+08,
2460063.500000000, A.D. 2023-Apr-29 00:00:00.0000, 3.216562463174285E+09, -8.506826808556406E+08, 1.917303062189368E+08,
2460070.500000000, A.D. 2023-May-06 00:00:00.0000, 3.217598243034170E+09, -8.472711770749248E+08, 1.922206557802581E+08,
2460077.500000000, A.D. 2023-May-13 00:00:00.0000, 3.218629728284209E+09, -8.438585872425120E+08, 1.927107535631578E+08,
2460084.500000000, A.D. 2023-May-20 00:00:00.0000, 3.219656917889342E+09, -8.404449141916199E+08, 1.932005990239475E+08,
2460091.500000000, A.D. 2023-May-27 00:00:00.0000, 3.220679810373200E+09, -8.370301608878753E+08, 1.936901916346846E+08,
2460098.500000000, A.D. 2023-Jun-03 00:00:00.0000, 3.221698403762882E+09, -8.336143305193648E+08, 1.941795308876109E+08,
2460105.500000000, A.D. 2023-Jun-10 00:00:00.0000, 3.222712695551118E+09, -8.301974266785289E+08, 1.946686162907363E+08,
2460112.500000000, A.D. 2023-Jun-17 00:00:00.0000, 3.223722682764865E+09, -8.267794536959474E+08, 1.951574473412120E+08,
2460119.500000000, A.D. 2023-Jun-24 00:00:00.0000, 3.224728362460344E+09, -8.233604170703443E+08, 1.956460234514351E+08,
2460126.500000000, A.D. 2023-Jul-01 00:00:00.0000, 3.225729732897624E+09, -8.199403231666555E+08, 1.961343438721236E+08,
2460133.500000000, A.D. 2023-Jul-08 00:00:00.0000, 3.226726793720801E+09, -8.165191773600545E+08, 1.966224078329143E+08,
2460140.500000000, A.D. 2023-Jul-15 00:00:00.0000, 3.227719543866996E+09, -8.130969834556605E+08, 1.971102147862135E+08,
2460147.500000000, A.D. 2023-Jul-22 00:00:00.0000, 3.228707980725571E+09, -8.096737454183114E+08, 1.975977643466845E+08,
$$EOE